NORAD_CAT_ID,OBJECT_NAME,OBJECT_TYPE,EPOCH,MEAN_MOTION,ECCENTRICITY,INCLINATION,RA_OF_ASC_NODE,ARG_OF_PERICENTER,MEAN_ANOMALY,BSTAR,MEAN_MOTION_DOT,MEAN_MOTION_DDOT,TLE_LINE0,TLE_LINE1,TLE_LINE2,SEMIMAJOR_AXIS,PERIOD,APOGEE,PERIGEE,DECAYED
51745.0,STARLINK-3449,PAYLOAD,2022-03-07 12:00:00,15.73118338,0.0001329,53.2184,70.7486,51.9383,42.6029,-6.3936e-05,-9.551e-05,0.0,0 STARLINK-3449,1 51745U 22016AH  22066.50001157 -.00009551  00000-0 -63936-4 0  9991,2 51745  53.2184  70.7486 0001329  51.9383  42.6029 15.73118338  2873,6728.128000000002,91.538,350.88699999999994,349.099,0.0
51745.0,STARLINK-3449,PAYLOAD,2022-03-07 22:00:00,15.73090696,0.0001271,53.2185,68.6848,64.8842,230.6886,0.00074,0.00104039,0.0,0 STARLINK-3449,1 51745U 22016AH  22066.91667824  .00104039  00000-0  74000-3 0  9993,2 51745  53.2185  68.6848 0001271  64.8842 230.6886 15.73090696  3542,6728.206999999999,91.54,350.927,349.217,0.0
51745.0,STARLINK-3449,PAYLOAD,2022-03-08 14:00:01,15.73302525,0.0001324,53.2179,65.3879,55.5687,57.7608,-0.0004966,-0.00070042,0.0,0 STARLINK-3449,1 51745U 22016AH  22067.58334491 -.00070042  00000-0 -49660-3 0  9990,2 51745  53.2179  65.3879 0001324  55.5687  57.7608 15.73302525  3059,6727.603,91.527,350.3590000000001,348.577,0.0
51745.0,STARLINK-3449,PAYLOAD,2022-03-08 20:00:01,15.73236219,0.0001142,53.2182,64.1494,66.5177,23.5862,-7.7601e-05,-0.00011512,0.0,0 STARLINK-3449,1 51745U 22016AH  22067.83334491 -.00011512  00000-0 -77601-4 0  9992,2 51745  53.2182  64.1494 0001142  66.5177  23.5862 15.73236219  3685,6727.792,91.531,350.425,348.889,0.0
51745.0,STARLINK-3449,PAYLOAD,2022-03-08 22:00:00,15.73238774,0.0001146,53.2182,63.7367,69.5941,132.7518,-0.00017256,-0.00024806,0.0,0 STARLINK-3449,1 51745U 22016AH  22067.91667824 -.00024806  00000-0 -17256-3 0  9999,2 51745  53.2182  63.7367 0001146  69.5941 132.7518 15.73238774  3101,6727.785,91.531,350.421,348.879,0.0
51745.0,STARLINK-3449,PAYLOAD,2022-03-09 14:00:01,15.73190454,9.76e-05,53.2185,60.4397,47.015,333.2088,0.00022164,0.00030586,0.0,0 STARLINK-3449,1 51745U 22016AH  22068.58334491  .00030586  00000-0  22164-3 0  9998,2 51745  53.2185  60.4397 0000976  47.0150 333.2088 15.73190454  3207,6727.922,91.534,350.444,349.131,0.0
51745.0,STARLINK-3449,PAYLOAD,2022-03-09 16:00:00,15.73196443,9.27e-05,53.2187,60.0267,51.2699,81.1765,0.00015828,0.00021647,0.0,0 STARLINK-3449,1 51745U 22016AH  22068.66667824  .00021647  00000-0  15828-3 0  9993,2 51745  53.2187  60.0267 0000927  51.2699  81.1765 15.73196443  3814,6727.905,91.533,350.394,349.147,0.0
51745.0,STARLINK-3449,PAYLOAD,2022-03-09 22:00:01,15.73199844,9.46e-05,53.2187,58.7886,62.5734,46.6363,0.00061184,0.00086131,0.0,0 STARLINK-3449,1 51745U 22016AH  22068.91668981  .00086131  00000-0  61184-3 0  9991,2 51745  53.2187  58.7886 0000946  62.5734  46.6363 15.73199844  3268,6727.896,91.533,350.397,349.124,0.0
51745.0,STARLINK-3449,PAYLOAD,2022-03-10 14:00:01,15.73191614,0.000108,53.2179,55.4912,57.2196,229.8466,-3.4734e-05,-5.489e-05,0.0,0 STARLINK-3449,1 51745U 22016AH  22069.58334491 -.00005489  00000-0 -34734-4 0  9992,2 51745  53.2179  55.4912 0001080  57.2196 229.8466 15.73191614  3363,6727.919,91.534,350.511,349.057,0.0
51745.0,STARLINK-3449,PAYLOAD,2022-03-10 20:00:01,15.73165762,8.6e-05,53.218,54.2528,66.5825,197.1734,0.00070256,0.00099002,0.0,0 STARLINK-3449,1 51745U 22016AH  22069.83334491  .00099002  00000-0  70256-3 0  9990,2 51745  53.2180  54.2528 0000860  66.5825 197.1734 15.73165762  4004,6727.993,91.535,350.436,349.279,0.0
51745.0,STARLINK-3449,PAYLOAD,2022-03-10 22:00:01,15.7319772,8.88e-05,53.2182,53.8404,68.6845,307.3581,0.00040007,0.00055895,0.0,0 STARLINK-3449,1 51745U 22016AH  22069.91668981  .00055895  00000-0  40007-3 0  9996,2 51745  53.2182  53.8404 0000888  68.6845 307.3581 15.73197720  3417,6727.901999999999,91.533,350.36400000000015,349.1690000000001,0.0
51745.0,STARLINK-3449,PAYLOAD,2022-03-11 04:00:00,15.73248757,8.7e-05,53.2184,52.6049,58.9694,293.7185,-0.0003978,-0.0005618999999999,0.0,0 STARLINK-3449,1 51745U 22016AH  22070.16667824 -.00056190  00000-0 -39780-3 0  9997,2 51745  53.2184  52.6049 0000870  58.9694 293.7185 15.73248757  4052,6727.755999999999,91.53,350.206,349.036,0.0
51745.0,STARLINK-3449,PAYLOAD,2022-03-11 12:00:00,15.732385,8.93e-05,53.2183,50.9558,48.3894,33.272,0.00048536,0.00068164,0.0,0 STARLINK-3449,1 51745U 22016AH  22070.50001157  .00068164  00000-0  48536-3 0  9997,2 51745  53.2183  50.9558 0000893  48.3894  33.2720 15.73238500  4100,6727.785,91.531,350.251,349.05,0.0
51745.0,STARLINK-3449,PAYLOAD,2022-03-11 22:00:00,15.73217771,0.0001169,53.2187,48.892,74.339,208.5403,6.1226e-05,7.987e-05,0.0,0 STARLINK-3449,1 51745U 22016AH  22070.91667824  .00007987  00000-0  61226-4 0  9999,2 51745  53.2187  48.8920 0001169  74.3390 208.5403 15.73217771  4179,6727.845,91.532,350.496,348.923,0.0
51745.0,STARLINK-3449,PAYLOAD,2022-03-12 14:00:01,15.73236281,0.0001199,53.2178,45.5942,69.628,31.1461,-0.00044263,-0.00062376,0.0,0 STARLINK-3449,1 51745U 22016AH  22071.58334491 -.00062376  00000-0 -44263-3 0  9990,2 51745  53.2178  45.5942 0001199  69.6280  31.1461 15.73236281  3681,6727.792,91.531,350.463,348.85,0.0
51745.0,STARLINK-3449,PAYLOAD,2022-03-12 22:00:00,15.73211528,0.0001238,53.2181,43.9437,85.5174,104.1886,0.00031539,0.00043896,0.0,0 STARLINK-3449,1 51745U 22016AH  22071.91667824  .00043896  00000-0  31539-3 0  9992,2 51745  53.2181  43.9437 0001238  85.5174 104.1886 15.73211528  4331,6727.861999999999,91.533,350.56,348.894,0.0
51745.0,STARLINK-3449,PAYLOAD,2022-03-13 06:00:00,15.73213755,0.0001248,53.2183,42.2964,70.915,207.7356,-0.00047536,-0.00066844,0.0,0 STARLINK-3449,1 51745U 22016AH  22072.25001157 -.00066844  00000-0 -47536-3 0  9995,2 51745  53.2183  42.2964 0001248  70.9150 207.7356 15.73213755  4384,6727.856,91.532,350.561,348.881,0.0
51745.0,STARLINK-3449,PAYLOAD,2022-03-13 14:00:01,15.73174762,0.0001084,53.2184,40.6458,74.2881,293.2785,-0.00042531,-0.0005982,0.0,0 STARLINK-3449,1 51745U 22016AH  22072.58334491 -.00059820  00000-0 -42531-3 0  9997,2 51745  53.2184  40.6458 0001084  74.2881 293.2785 15.73174762  3717,6727.967,91.535,350.561,349.103,0.0
51745.0,STARLINK-3449,PAYLOAD,2022-03-13 20:00:01,15.73144812,0.0001248,53.2182,39.4042,81.4206,262.8747,0.00083862,0.00118466,0.0,0 STARLINK-3449,1 51745U 22016AH  22072.83334491  .00118466  00000-0  83862-3 0  9997,2 51745  53.2182  39.4042 0001248  81.4206 262.8747 15.73144812  4470,6728.053000000001,91.536,350.75699999999995,349.07800000000015,0.0
51745.0,STARLINK-3449,PAYLOAD,2022-03-13 22:00:01,15.73205651,0.0001409,53.2181,38.9907,83.9471,12.6229,0.00010687,0.00014408,0.0,0 STARLINK-3449,1 51745U 22016AH  22072.91668981  .00014408  00000-0  10687-3 0  9996,2 51745  53.2181  38.9907 0001409  83.9471  12.6229 15.73205651  3714,6727.879,91.533,350.69199999999995,348.796,0.0
51745.0,STARLINK-3449,PAYLOAD,2022-03-14 12:00:00,15.73277831,0.0001004,53.2178,36.1098,74.6264,87.6058,0.00037976,0.00053193,0.0,0 STARLINK-3449,1 51745U 22016AH  22073.50001157  .00053193  00000-0  37976-3 0  9992,2 51745  53.2178  36.1098 0001004  74.6264  87.6058 15.73277831  4586,6727.6730000000025,91.529,350.214,348.86300000000006,0.0
51745.0,STARLINK-3449,PAYLOAD,2022-03-14 14:00:01,15.73311341,9.32e-05,53.2179,35.6967,80.2341,194.3134,-9.2033e-06,-1.918e-05,0.0,0 STARLINK-3449,1 51745U 22016AH  22073.58335648 -.00001918  00000-0 -92033-5 0  9992,2 51745  53.2179  35.6967 0000932  80.2341 194.3134 15.73311341  3680,6727.578,91.527,350.07,348.816,0.0
51745.0,STARLINK-3449,PAYLOAD,2022-03-14 20:00:01,15.73273952,9.17e-05,53.218,34.4585,88.9417,162.3073,3.9589e-05,4.957e-05,0.0,0 STARLINK-3449,1 51745U 22016AH  22073.83334491  .00004957  00000-0  39589-4 0  9995,2 51745  53.2180  34.4585 0000917  88.9417 162.3073 15.73273952  4635,6727.684,91.529,350.166,348.932,0.0
51745.0,STARLINK-3449,PAYLOAD,2022-03-15 02:00:01,15.73328645,0.0001037,53.2183,33.2229,81.2013,146.8034,-0.0012907,-0.00178937,0.0,0 STARLINK-3449,1 51745U 22016AH  22074.08334491 -.00178937  00000-0 -12907-2 0  9998,2 51745  53.2183  33.2229 0001037  81.2013 146.8034 15.73328645  4670,6727.528,91.526,350.091,348.696,0.0
51745.0,STARLINK-3449,PAYLOAD,2022-03-15 22:00:00,15.72973455,0.0001447,53.219,29.0983,87.5829,182.6015,0.0012894,0.00182545,0.0,0 STARLINK-3449,1 51745U 22016AH  22074.91667824  .00182545  00000-0  12894-2 0  9992,2 51745  53.2190  29.0983 0001447  87.5829 182.6015 15.72973455  3688,6728.541,91.546,351.38,349.43300000000005,0.0
51745.0,STARLINK-3449,PAYLOAD,2022-03-16 04:00:00,15.73096641,0.0001655,53.2188,27.8633,80.6541,166.0595,0.00040277,0.00056034,0.0,0 STARLINK-3449,1 51745U 22016AH  22075.16667824  .00056034  00000-0  40277-3 0  9990,2 51745  53.2188  27.8633 0001655  80.6541 166.0595 15.73096641  4841,6728.19,91.539,351.168,348.941,0.0
51745.0,STARLINK-3449,PAYLOAD,2022-03-16 14:00:01,15.73154997,0.0001525,53.2185,25.8005,88.4371,359.3141,0.00033004,0.00045863,0.0,0 STARLINK-3449,1 51745U 22016AH  22075.58334491  .00045863  00000-0  33004-3 0  9995,2 51745  53.2185  25.8005 0001525  88.4371 359.3141 15.73154997  3686,6728.023,91.536,350.915,348.862,0.0
51745.0,STARLINK-3449,PAYLOAD,2022-03-16 20:00:01,15.73160877,0.0001593,53.2187,24.5628,94.1048,330.2967,0.00057125,0.00080185,0.0,0 STARLINK-3449,1 51745U 22016AH  22075.83334491  .00080185  00000-0  57125-3 0  9999,2 51745  53.2187  24.5628 0001593  94.1048 330.2967 15.73160877  3683,6728.007,91.535,350.9430000000001,348.8,0.0
51745.0,STARLINK-3449,PAYLOAD,2022-03-17 06:00:00,15.73194265,0.0001514,53.2191,22.5036,83.4578,182.0936,0.000553,0.00077692,0.0,0 STARLINK-3449,1 51745U 22016AH  22076.25001157  .00077692  00000-0  55300-3 0  9998,2 51745  53.2191  22.5036 0001514  83.4578 182.0936 15.73194265  5017,6727.9119999999975,91.534,350.795,348.7580000000001,0.0
